KUIPER-00079            
1 64826U 25151L   25254.25004630  .00001296  00000+0  10191-3 0  9990
2 64826  51.8915  15.8628 0009424 350.8711 129.6041 15.07941677  5691
KUIPER-00080            
1 64827U 25151M   25254.25004630  .00033359  00000+0  21090-2 0  9995
2 64827  51.9052  15.8410 0004347  30.0167 190.0029 15.08722989  5620
KUIPER-00082            
1 64828U 25151N   25254.06363421  .00021200  00000+0  58596-3 0  9995
2 64828  51.8811  13.5390 0006826 343.7013  16.3754 15.36967349  8724
KUIPER-00083            
1 64829U 25151P   25254.25004630 -.01210437  00000+0 -60156-1 0  9999
2 64829  51.8816  13.8546 0007292 356.5587  48.8906 15.20089380  5620
KUIPER-00084            
1 64830U 25151Q   25254.25004630 -.00024763  00000+0 -23447-2 0  9998
2 64830  51.8965  19.3392 0010314 341.1701 198.2467 14.92916013  5389
KUIPER-00085            
1 64831U 25151R   25254.25004630  .00074526  00000+0  21633-2 0  9994
2 64831  51.8813  12.5793 0007200 340.7412 357.8639 15.34808170  4841
KUIPER-00086            
1 64832U 25151S   25254.25004630 -.00759481  00000+0 -43981-1 0  9996
2 64832  51.8863  14.7590 0009018 354.7022 317.0413 15.14375195  4197
KUIPER-00087            
1 64833U 25151T   25254.25004630  .00067376  00000+0  18369-2 0  9993
2 64833  51.8807  12.6835 0006437 347.3682 304.7546 15.36818586  4322
